COSMOS 1933             
1 18958U 88020A   26052.11171354  .00003022  00000+0  14796-3 0  9993
2 18958  82.5103 267.3165 0002755 256.3809 103.7118 15.17825802 47713
SL-3 R/B                
1 19046U 88032B   26052.47000938  .00005387  00000+0  25376-3 0  9995
2 19046  97.5173  35.7843 0024256 292.5272  67.3395 15.19690251 49647
SL-16 R/B               
1 19120U 88039B   26052.49203358 -.00000134  00000+0 -40699-4 0  9991
2 19120  71.0136 102.8007 0021730 358.5909   1.5151 14.19613758956089
COSMOS 1953             
1 19210U 88050A   26052.32307844  .00008927  00000+0  32319-3 0  9996
2 19210  82.5106 174.6979 0011352 176.9973 183.1337 15.28191069 35280
SL-8 R/B                
1 19257U 88053B   26052.46099905  .00000221  00000+0  80260-4 0  9999
2 19257  74.0483 142.3787 0020940 324.2148 116.8191 14.38905182974269
COSMOS 1975             
1 19573U 88093A   26052.28670663  .00007958  00000+0  29168-3 0  9993
2 19573  82.5213 134.1448 0010784 222.3950 137.6456 15.27779974 16902
SL-14 R/B               
1 19574U 88093B   26052.50795132  .00000455  00000+0  49520-4 0  9998
2 19574  82.5281  57.2376 0022323  91.5860  24.5968 14.85635339998631
SL-16 R/B               
1 19650U 88102B   26052.44697019 -.00000149  00000+0 -50960-4 0  9994
2 19650  70.9996 185.6695 0013061  26.6743 333.5049 14.16151852924592
INTERCOSMOS 24          
1 20261U 89080A   26052.28149316  .00000590  00000+0  17344-3 0  9990
2 20261  82.6049 115.0870 1187267 330.9382  23.0312 12.59531558664735
SL-14 R/B               
1 20262U 89080C   26052.39189990  .00000529  00000+0  15841-3 0  9997
2 20262  82.5963 183.6465 1229881 222.0038 128.0137 12.50470657658118
DELTA 1 R/B             
1 20323U 89089B   26052.48031719  .00000273  00000+0  76266-4 0  9994
2 20323  97.0715 262.4958 0069277 172.6921 187.5304 14.50648357893388
ARIANE 40 R/B           
1 20443U 90005H   26052.41356443  .00000215  00000+0  82065-4 0  9994
2 20443  98.3121 113.5570 0009044 250.9063 109.1146 14.39858648890468
